{"type": "FeatureCollection", "features": [ {"type": "Feature", "properties": {"norad_id": 33980, "name": "COSMOS 2251 DEB", "group": "cosmos-2251-debris", "lat": 18.690623245918317, "lon": 68.83387769760039, "alt_km": 717.6485965141492, "timestamp": "2025-12-10T16:57:12.032135+00:00", "meta": {"OBJECT_NAME": "COSMOS 2251 DEB", "OBJECT_ID": "1993-036FP", "EPOCH": "2025-12-10T12:00:53.739072", "MEAN_MOTION": 14.58628065, "ECCENTRICITY": 0.0028816, "INCLINATION": 74.0215, "RA_OF_ASC_NODE": 63.6633, "ARG_OF_PERICENTER": 209.2486, "MEAN_ANOMALY": 170.2226, "EPHEMERIS_TYPE": 0, "CLASSIFICATION_TYPE": "U", "NORAD_CAT_ID": 33980, "ELEMENT_SET_NO": 999, "REV_AT_EPOCH": 88762, "BSTAR": 0.0011608, "MEAN_MOTION_DOT": 5.412e-05, "MEAN_MOTION_DDOT": 0}, "tle": {"line1": "1 33980U 93036FP  25344.50062198  .00005412  00000+0  11608-2 0  9992", "line2": "2 33980  74.0215  63.6633 0028816 209.2486 170.2226 14.58628065887623"}}, "geometry": {"type": "Point", "coordinates": [68.83387769760039, 18.690623245918317]}}, {"type": "Feature", "properties": {"norad_id": 33982, "name": "COSMOS 2251 DEB", "group": "cosmos-2251-debris", "lat": -40.95875790515966, "lon": -161.83676257242757, "alt_km": 751.4877816489943, "timestamp": "2025-12-10T16:57:12.032146+00:00", "meta": {"OBJECT_NAME": "COSMOS 2251 DEB", "OBJECT_ID": "1993-036FR", "EPOCH": "2025-12-10T11:41:11.572800", "MEAN_MOTION": 14.6019759, "ECCENTRICITY": 0.0075002, "INCLINATION": 74.0709, "RA_OF_ASC_NODE": 4.2276, "ARG_OF_PERICENTER": 49.3807, "MEAN_ANOMALY": 100.3075, "EPHEMERIS_TYPE": 0, "CLASSIFICATION_TYPE": "U", "NORAD_CAT_ID": 33982, "ELEMENT_SET_NO": 999, "REV_AT_EPOCH": 89126, "BSTAR": 0.0005575, "MEAN_MOTION_DOT": 2.765e-05, "MEAN_MOTION_DDOT": 0}, "tle": {"line1": "1 33982U 93036FR  25344.48693950  .00002765  00000+0  55750-3 0  9992", "line2": "2 33982  74.0709   4.2276 0075002  49.3807 100.3075 14.60197590891264"}}, "geometry": {"type": "Point", "coordinates": [-161.83676257242757, -40.95875790515966]}}, {"type": "Feature", "properties": {"norad_id": 33983, "name": "COSMOS 2251 DEB", "group": "cosmos-2251-debris", "lat": -42.31348245461666, "lon": -14.04375368553667, "alt_km": 716.5801980315673, "timestamp": "2025-12-10T16:57:12.032155+00:00", "meta": {"OBJECT_NAME": "COSMOS 2251 DEB", "OBJECT_ID": "1993-036FS", "EPOCH": "2025-12-10T12:52:20.551872", "MEAN_MOTION": 14.50655309, "ECCENTRICITY": 0.0021349, "INCLINATION": 74.0495, "RA_OF_ASC_NODE": 151.184, "ARG_OF_PERICENTER": 254.3384, "MEAN_ANOMALY": 162.4854, "EPHEMERIS_TYPE": 0, "CLASSIFICATION_TYPE": "U", "NORAD_CAT_ID": 33983, "ELEMENT_SET_NO": 999, "REV_AT_EPOCH": 88597, "BSTAR": 0.00083584, "MEAN_MOTION_DOT": 3.265e-05, "MEAN_MOTION_DDOT": 0}, "tle": {"line1": "1 33983U 93036FS  25344.53634898  .00003265  00000+0  83584-3 0  9997", "line2": "2 33983  74.0495 151.1840 0021349 254.3384 162.4854 14.50655309885970"}}, "geometry": {"type": "Point", "coordinates": [-14.04375368553667, -42.31348245461666]}}, {"type": "Feature", "properties": {"norad_id": 33984, "name": "COSMOS 2251 DEB", "group": "cosmos-2251-debris", "lat": -34.20832763437577, "lon": -177.73080923726184, "alt_km": 663.90782831038, "timestamp": "2025-12-10T16:57:12.032166+00:00", "meta": {"OBJECT_NAME": "COSMOS 2251 DEB", "OBJECT_ID": "1993-036FT", "EPOCH": "2025-12-10T11:37:09.505920", "MEAN_MOTION": 14.66330931, "ECCENTRICITY": 0.0023254, "INCLINATION": 74.0097, "RA_OF_ASC_NODE": 351.457, "ARG_OF_PERICENTER": 190.2538, "MEAN_ANOMALY": 292.5865, "EPHEMERIS_TYPE": 0, "CLASSIFICATION_TYPE": "U", "NORAD_CAT_ID": 33984, "ELEMENT_SET_NO": 999, "REV_AT_EPOCH": 89033, "BSTAR": 0.0012479, "MEAN_MOTION_DOT": 6.892e-05, "MEAN_MOTION_DDOT": 0}, "tle": {"line1": "1 33984U 93036FT  25344.48413780  .00006892  00000+0  12479-2 0  9990", "line2": "2 33984  74.0097 351.4570 0023254 190.2538 292.5865 14.66330931890331"}}, "geometry": {"type": "Point", "coordinates": [-177.73080923726184, -34.20832763437577]}}, {"type": "Feature", "properties": {"norad_id": 33986, "name": "COSMOS 2251 DEB", "group": "cosmos-2251-debris", "lat": 30.694381961442858, "lon": -43.76744514634005, "alt_km": 717.9179692615426, "timestamp": "2025-12-10T16:57:12.032176+00:00", "meta": {"OBJECT_NAME": "COSMOS 2251 DEB", "OBJECT_ID": "1993-036FV", "EPOCH": "2025-12-10T05:43:57.186912", "MEAN_MOTION": 14.43184431, "ECCENTRICITY": 0.0040333, "INCLINATION": 74.0369, "RA_OF_ASC_NODE": 307.3176, "ARG_OF_PERICENTER": 20.5739, "MEAN_ANOMALY": 103.4184, "EPHEMERIS_TYPE": 0, "CLASSIFICATION_TYPE": "U", "NORAD_CAT_ID": 33986, "ELEMENT_SET_NO": 999, "REV_AT_EPOCH": 87992, "BSTAR": 0.0013255, "MEAN_MOTION_DOT": 4.475e-05, "MEAN_MOTION_DDOT": 0}, "tle": {"line1": "1 33986U 93036FV  25344.23885633  .00004475  00000+0  13255-2 0  9993", "line2": "2 33986  74.0369 307.3176 0040333  20.5739 103.4184 14.43184431879925"}}, "geometry": {"type": "Point", "coordinates": [-43.76744514634005, 30.694381961442858]}}, {"type": "Feature", "properties": {"norad_id": 33990, "name": "COSMOS 2251 DEB", "group": "cosmos-2251-debris", "lat": 46.80137890231289, "lon": -52.86349085797656, "alt_km": 1105.7058715805224, "timestamp": "2025-12-10T16:57:12.032186+00:00", "meta": {"OBJECT_NAME": "COSMOS 2251 DEB", "OBJECT_ID": "1993-036FZ", "EPOCH": "2025-12-10T08:25:46.297056", "MEAN_MOTION": 13.4998145, "ECCENTRICITY": 0.0407566, "INCLINATION": 73.929, "RA_OF_ASC_NODE": 289.8291, "ARG_OF_PERICENTER": 310.5679, "MEAN_ANOMALY": 168.8032, "EPHEMERIS_TYPE": 0, "CLASSIFICATION_TYPE": "U", "NORAD_CAT_ID": 33990, "ELEMENT_SET_NO": 999, "REV_AT_EPOCH": 82697, "BSTAR": 0.0022358, "MEAN_MOTION_DOT": 2.359e-05, "MEAN_MOTION_DDOT": 0}, "tle": {"line1": "1 33990U 93036FZ  25344.35123029  .00002359  00000+0  22358-2 0  9998", "line2": "2 33990  73.9290 289.8291 0407566 310.5679 168.8032 13.49981450826978"}}, "geometry": {"type": "Point", "coordinates": [-52.86349085797656, 46.80137890231289]}}, {"type": "Feature", "properties": {"norad_id": 33992, "name": "COSMOS 2251 DEB", "group": "cosmos-2251-debris", "lat": 70.62435311219565, "lon": 36.205892249667144, "alt_km": 632.1268384002733, "timestamp": "2025-12-10T16:57:12.032197+00:00", "meta": {"OBJECT_NAME": "COSMOS 2251 DEB", "OBJECT_ID": "1993-036GB", "EPOCH": "2025-12-10T10:43:37.597152", "MEAN_MOTION": 14.66182756, "ECCENTRICITY": 0.0051628, "INCLINATION": 74.0244, "RA_OF_ASC_NODE": 342.1587, "ARG_OF_PERICENTER": 100.7471, "MEAN_ANOMALY": 49.6374, "EPHEMERIS_TYPE": 0, "CLASSIFICATION_TYPE": "U", "NORAD_CAT_ID": 33992, "ELEMENT_SET_NO": 999, "REV_AT_EPOCH": 89091, "BSTAR": 0.001084, "MEAN_MOTION_DOT": 6.058e-05, "MEAN_MOTION_DDOT": 0}, "tle": {"line1": "1 33992U 93036GB  25344.44696293  .00006058  00000+0  10840-2 0  9991", "line2": "2 33992  74.0244 342.1587 0051628 100.7471  49.6374 14.66182756890917"}}, "geometry": {"type": "Point", "coordinates": [36.205892249667144, 70.62435311219565]}}, {"type": "Feature", "properties": {"norad_id": 33994, "name": "COSMOS 2251 DEB", "group": "cosmos-2251-debris", "lat": 5.276401200120373, "lon": 12.658432269254217, "alt_km": 771.5642305604588, "timestamp": "2025-12-10T16:57:12.032207+00:00", "meta": {"OBJECT_NAME": "COSMOS 2251 DEB", "OBJECT_ID": "1993-036GD", "EPOCH": "2025-12-10T08:37:26.700384", "MEAN_MOTION": 14.41212472, "ECCENTRICITY": 0.0023579, "INCLINATION": 74.042, "RA_OF_ASC_NODE": 194.8147, "ARG_OF_PERICENTER": 329.5571, "MEAN_ANOMALY": 205.0501, "EPHEMERIS_TYPE": 0, "CLASSIFICATION_TYPE": "U", "NORAD_CAT_ID": 33994, "ELEMENT_SET_NO": 999, "REV_AT_EPOCH": 88385, "BSTAR": 0.00013401, "MEAN_MOTION_DOT": 4.07e-06, "MEAN_MOTION_DDOT": 0}, "tle": {"line1": "1 33994U 93036GD  25344.35933681  .00000407  00000+0  13401-3 0  9997", "line2": "2 33994  74.0420 194.8147 0023579 329.5571 205.0501 14.41212472883852"}}, "geometry": {"type": "Point", "coordinates": [12.658432269254217, 5.276401200120373]}}, {"type": "Feature", "properties": {"norad_id": 33995, "name": "COSMOS 2251 DEB", "group": "cosmos-2251-debris", "lat": -58.20540783841083, "lon": 95.62005643744398, "alt_km": 823.1024991119311, "timestamp": "2025-12-10T16:57:12.032217+00:00", "meta": {"OBJECT_NAME": "COSMOS 2251 DEB", "OBJECT_ID": "1993-036GE", "EPOCH": "2025-12-10T12:13:31.207872", "MEAN_MOTION": 14.34753123, "ECCENTRICITY": 0.0060287, "INCLINATION": 74.0613, "RA_OF_ASC_NODE": 123.432, "ARG_OF_PERICENTER": 138.4733, "MEAN_ANOMALY": 222.1023, "EPHEMERIS_TYPE": 0, "CLASSIFICATION_TYPE": "U", "NORAD_CAT_ID": 33995, "ELEMENT_SET_NO": 999, "REV_AT_EPOCH": 87487, "BSTAR": 0.0016234, "MEAN_MOTION_DOT": 4.674e-05, "MEAN_MOTION_DDOT": 0}, "tle": {"line1": "1 33995U 93036GE  25344.50938898  .00004674  00000+0  16234-2 0  9996", "line2": "2 33995  74.0613 123.4320 0060287 138.4733 222.1023 14.34753123874878"}}, "geometry": {"type": "Point", "coordinates": [95.62005643744398, -58.20540783841083]}}, {"type": "Feature", "properties": {"norad_id": 33999, "name": "COSMOS 2251 DEB", "group": "cosmos-2251-debris", "lat": 71.09164219464279, "lon": -2.538819027638425, "alt_km": 585.0004416122856, "timestamp": "2025-12-10T16:57:12.032226+00:00", "meta": {"OBJECT_NAME": "COSMOS 2251 DEB", "OBJECT_ID": "1993-036GJ", "EPOCH": "2025-12-10T10:01:47.061120", "MEAN_MOTION": 14.83276857, "ECCENTRICITY": 0.0044545, "INCLINATION": 73.9185, "RA_OF_ASC_NODE": 235.4073, "ARG_OF_PERICENTER": 131.7381, "MEAN_ANOMALY": 228.7619, "EPHEMERIS_TYPE": 0, "CLASSIFICATION_TYPE": "U", "NORAD_CAT_ID": 33999, "ELEMENT_SET_NO": 999, "REV_AT_EPOCH": 89216, "BSTAR": 0.00207, "MEAN_MOTION_DOT": 0.00017243, "MEAN_MOTION_DDOT": 0}, "tle": {"line1": "1 33999U 93036GJ  25344.41790580  .00017243  00000+0  20700-2 0  9993", "line2": "2 33999  73.9185 235.4073 0044545 131.7381 228.7619 14.83276857892160"}}, "geometry": {"type": "Point", "coordinates": [-2.538819027638425, 71.09164219464279]}}]}